[{"OBJECT_NAME":"STARLINK-1274","OBJECT_ID":"2020-019AD","EPOCH":"2026-03-09T11:07:49.598400","MEAN_MOTION":15.47008118,"ECCENTRICITY":0.00031219,"INCLINATION":53.0276,"RA_OF_ASC_NODE":104.0147,"ARG_OF_PERICENTER":240.3604,"MEAN_ANOMALY":119.7091,"EPHEMERIS_TYPE":0,"CLASSIFICATION_TYPE":"U","NORAD_CAT_ID":45387,"ELEMENT_SET_NO":999,"REV_AT_EPOCH":33058,"BSTAR":0.0015166091,"MEAN_MOTION_DOT":0.00078205,"MEAN_MOTION_DDOT":0},{"OBJECT_NAME":"OBJECT R","OBJECT_ID":"2024-199R","EPOCH":"2026-03-09T21:37:29.244288","MEAN_MOTION":15.48356737,"ECCENTRICITY":0.00065431,"INCLINATION":97.3114,"RA_OF_ASC_NODE":303.0259,"ARG_OF_PERICENTER":290.9489,"MEAN_ANOMALY":69.1061,"EPHEMERIS_TYPE":0,"CLASSIFICATION_TYPE":"U","NORAD_CAT_ID":61750,"ELEMENT_SET_NO":999,"REV_AT_EPOCH":12215,"BSTAR":0.00070051746,"MEAN_MOTION_DOT":0.00037122,"MEAN_MOTION_DDOT":0}]
